[{"OBJECT_NAME":"SENTINEL-5P","OBJECT_ID":"2017-064A","EPOCH":"2026-03-09T19:35:06.853056","MEAN_MOTION":14.19549302,"ECCENTRICITY":0.00010631,"INCLINATION":98.7881,"RA_OF_ASC_NODE":11.6741,"ARG_OF_PERICENTER":80.585,"MEAN_ANOMALY":279.5446,"EPHEMERIS_TYPE":0,"CLASSIFICATION_TYPE":"U","NORAD_CAT_ID":42969,"ELEMENT_SET_NO":999,"REV_AT_EPOCH":43546,"BSTAR":7.6086876e-5,"MEAN_MOTION_DOT":1.16e-6,"MEAN_MOTION_DDOT":0},{"OBJECT_NAME":"UNKNOWN","OBJECT_ID":"","EPOCH":"2026-03-09T13:54:51.727104","MEAN_MOTION":14.10420538,"ECCENTRICITY":0.0066436,"INCLINATION":90.006,"RA_OF_ASC_NODE":271.7047,"ARG_OF_PERICENTER":325.5712,"MEAN_ANOMALY":34.1176,"EPHEMERIS_TYPE":0,"CLASSIFICATION_TYPE":"U","NORAD_CAT_ID":87334,"ELEMENT_SET_NO":999,"REV_AT_EPOCH":39887,"BSTAR":0.010835,"MEAN_MOTION_DOT":0.00019703,"MEAN_MOTION_DDOT":0}]
